*******************************************************************************
 Revised: April 12, 2021                Venus                           299 / 2
 
 PHYSICAL DATA (updated 2020-Oct-19):
  Vol. Mean Radius (km) =  6051.84+-0.01 Density (g/cm^3)      =  5.204
  Mass x10^23 (kg)      =    48.685      Volume (x10^10 km^3)  = 92.843
  Sidereal rot. period  =   243.018484 d Sid. Rot. Rate (rad/s)= -0.00000029924
  Mean solar day        =   116.7490 d   Equ. gravity  m/s^2   =  8.870
  Mom. of Inertia       =     0.33       Core radius (km)      = ~3200
  Geometric Albedo      =     0.65       Potential Love # k2   = ~0.25
  GM (km^3/s^2)         = 324858.592     Equatorial Radius, Re = 6051.893 km
  GM 1-sigma (km^3/s^2) =    +-0.006     Mass ratio (Sun/Venus)= 408523.72
  Atmos. pressure (bar) =  90            Max. angular diam.    =   60.2"
  Mean Temperature (K)  = 735            Visual mag. V(1,0)    =   -4.40
  Obliquity to orbit    = 177.3 deg      Hill's sphere rad.,Rp =  167.1
  Sidereal orb. per., y =   0.61519726   Orbit speed, km/s     =   35.021
  Sidereal orb. per., d = 224.70079922   Escape speed, km/s    =   10.361
                                 Perihelion  Aphelion    Mean
  Solar Constant (W/m^2)         2759         2614       2650
  Maximum Planetary IR (W/m^2)    153         153         153
  Minimum Planetary IR (W/m^2)    153         153         153
*******************************************************************************


*******************************************************************************
Ephemeris / WWW_USER Tue Oct  4 13:01:56 2022 Pasadena, USA      / Horizons
*******************************************************************************
Target body name: Venus (299)                     {source: DE441}
Center body name: Sun (10)                        {source: DE441}
Center-site name: BODY CENTER
*******************************************************************************
Start time      : A.D. 2022-Sep-23 00:00:00.0000 TDB
Stop  time      : A.D. 2025-Sep-23 00:00:00.0000 TDB
Step-size       : 1 calendar months
*******************************************************************************
Center geodetic : 0.00000000,0.00000000,0.0000000 {E-lon(deg),Lat(deg),Alt(km)}
Center cylindric: 0.00000000,0.00000000,0.0000000 {E-lon(deg),Dxy(km),Dz(km)}
Center radii    : 696000.0 x 696000.0 x 696000.0 k{Equator, meridian, pole}    
Output units    : KM-S
Output type     : GEOMETRIC cartesian states
Output format   : 2x (pos. & vel. w/uncertainties: XYZ)
Reference frame : Ecliptic of J2000.0
*******************************************************************************
JDTDB
 State   : X       Y        Z     VX       VY        VZ
 1-sigma : X_s     Y_s      Z_s   VX_s     VY_s      VZ_s
*******************************************************************************************************************************************************
$$SOE
2460423.500000000 = A.D. 2024-Apr-23 00:00:00.0000 TDB 
 XYZ   :  1.078898762842481E+08   1.114948581417186E+07  -6.072210705757326E+06  -3.737070385743341E+00   3.467557258893216E+01   6.918507859450749E-01
 sigmas:                   n.a.                    n.a.                    n.a.                    n.a.                    n.a.                    n.a.
2460453.500000000 = A.D. 2024-May-23 00:00:00.0000 TDB 
 XYZ   :  6.373760256672546E+07   8.721674238353182E+07  -2.479911204471711E+06  -2.838341122433702E+01   2.051089247487425E+01   1.919435960315749E+00
 sigmas:                   n.a.                    n.a.                    n.a.                    n.a.                    n.a.                    n.a.
2460484.500000000 = A.D. 2024-Jun-23 00:00:00.0000 TDB 
 XYZ   : -2.569251995315616E+07   1.044095389258194E+08   2.916403924574114E+06  -3.412353948335207E+01  -8.562490131205703E+00   1.851363388922034E+00
 sigmas:                   n.a.                    n.a.                    n.a.                    n.a.                    n.a.                    n.a.
2460514.500000000 = A.D. 2024-Jul-23 00:00:00.0000 TDB 
 XYZ   : -9.525245542028259E+07   4.950532130180623E+07   6.176035320945583E+06  -1.629871438333321E+01  -3.124256727412905E+01   5.113743389692011E-01
 sigmas:                   n.a.                    n.a.                    n.a.                    n.a.                    n.a.                    n.a.
2460545.500000000 = A.D. 2024-Aug-23 00:00:00.0000 TDB 
 XYZ   : -9.946481549094155E+07  -4.167151207840437E+07   5.166898307543861E+06   1.329523185658014E+01  -3.246149778300686E+01  -1.212962228573961E+00
 sigmas:                   n.a.                    n.a.                    n.a.                    n.a.                    n.a.                    n.a.
2460576.500000000 = A.D. 2024-Sep-23 00:00:00.0000 TDB 
 XYZ   : -3.301553155369328E+07  -1.034315737577642E+08   4.845233108059987E+05   3.312660814743558E+01  -1.079721324878883E+01  -2.059720417036554E+00
 sigmas:                   n.a.                    n.a.                    n.a.                    n.a.                    n.a.                    n.a.
2460606.500000000 = A.D. 2024-Oct-23 00:00:00.0000 TDB 
 XYZ   :  5.408211307118083E+07  -9.444299371744226E+07  -4.417641528247215E+06   3.015693477524986E+01   1.728283986168632E+01  -1.502724071471871E+00
 sigmas:                   n.a.                    n.a.                    n.a.                    n.a.                    n.a.                    n.a.
2460637.500000000 = A.D. 2024-Nov-23 00:00:00.0000 TDB 
 XYZ   :  1.065624540267952E+08  -2.092696691550022E+07  -6.436154197804939E+06   6.577679491438737E+00   3.420663824259675E+01   9.024699351433618E-02
 sigmas:                   n.a.                    n.a.                    n.a.                    n.a.                    n.a.                    n.a.
2460667.500000000 = A.D. 2024-Dec-23 00:00:00.0000 TDB 
 XYZ   :  8.674723804519872E+07   6.465325099841212E+07  -4.117463695673719E+06  -2.103439870294036E+01   2.793011482155001E+01   1.597286704420760E+00
 sigmas:                   n.a.                    n.a.                    n.a.                    n.a.                    n.a.                    n.a.
2460698.500000000 = A.D. 2025-Jan-23 00:00:00.0000 TDB 
 XYZ   :  6.535087966860988E+06   1.074877485103146E+08   1.099116872863434E+06  -3.507483995099028E+01   1.943652059391449E+00   2.050536791210201E+00
 sigmas:                   n.a.                    n.a.                    n.a.                    n.a.                    n.a.                    n.a.
2460729.500000000 = A.D. 2025-Feb-23 00:00:00.0000 TDB 
 XYZ   : -7.821584851851141E+07   7.351308385858369E+07   5.522686889723089E+06  -2.411210678956754E+01  -2.570157180321502E+01   1.038286489474526E+00
 sigmas:                   n.a.                    n.a.                    n.a.                    n.a.                    n.a.                    n.a.
2460757.500000000 = A.D. 2025-Mar-23 00:00:00.0000 TDB 
 XYZ   : -1.074858837290338E+08  -4.185883294144986E+06   6.144371536817801E+06   1.154137343094003E+00  -3.514890891488876E+01  -5.494058315482881E-01
 sigmas:                   n.a.                    n.a.                    n.a.                    n.a.                    n.a.                    n.a.
2460788.500000000 = A.D. 2025-Apr-23 00:00:00.0000 TDB 
 XYZ   : -6.657002245204306E+07  -8.543082805132493E+07   2.667438864651352E+06   2.737903666392512E+01  -2.168869174609848E+01  -1.877736645181993E+00
 sigmas:                   n.a.                    n.a.                    n.a.                    n.a.                    n.a.                    n.a.
2460818.500000000 = A.D. 2025-May-23 00:00:00.0000 TDB 
 XYZ   :  1.834985875817988E+07  -1.072426368113081E+08  -2.532117946433000E+06   3.428373850715612E+01   5.784143633685301E+00  -1.898719007713902E+00
 sigmas:                   n.a.                    n.a.                    n.a.                    n.a.                    n.a.                    n.a.
2460849.500000000 = A.D. 2025-Jun-23 00:00:00.0000 TDB 
 XYZ   :  9.295011113969333E+07  -5.642421275024215E+07  -6.138419412528280E+06   1.796194673563088E+01   2.979354630219849E+01  -6.270976933897181E-01
 sigmas:                   n.a.                    n.a.                    n.a.                    n.a.                    n.a.                    n.a.
2460879.500000000 = A.D. 2025-Jul-23 00:00:00.0000 TDB 
 XYZ   :  1.039611067154231E+08   3.060593031388576E+07  -5.578110520478805E+06  -1.001317723257395E+01   3.343880217400547E+01   1.037156111902892E+00
 sigmas:                   n.a.                    n.a.                    n.a.                    n.a.                    n.a.                    n.a.
2460910.500000000 = A.D. 2025-Aug-23 00:00:00.0000 TDB 
 XYZ   :  4.380638827433722E+07   9.859961751686050E+07  -1.173050107955955E+06  -3.211960889582723E+01   1.405800409264266E+01   2.046440596709612E+00
 sigmas:                   n.a.                    n.a.                    n.a.                    n.a.                    n.a.                    n.a.
2460941.500000000 = A.D. 2025-Sep-23 00:00:00.0000 TDB 
 XYZ   : -4.733700301766019E+07   9.643132754115689E+07   4.056141893573381E+06  -3.155654798118833E+01  -1.562789856945592E+01   1.606110599824293E+00
 sigmas:                   n.a.                    n.a.                    n.a.                    n.a.                    n.a.                    n.a.
